{
  "type": "FeatureCollection",
  "features": [
    {
      "type": "Feature",
      "properties": {
        "norad_id": 40115,
        "name": "WORLDVIEW-3 (WV-3)",
        "group": "resource",
        "lat": 38.253479465958506,
        "lon": 55.93340912154545,
        "alt_km": 611.631416060256,
        "timestamp": "2025-12-15T22:44:28.580538+00:00",
        "meta_object_name": "WORLDVIEW-3 (WV-3)",
        "meta_object_id": "2014-048A",
        "meta_epoch": "2025-12-15T08:01:05.732832",
        "meta_mean_motion": 14.85518093,
        "meta_eccentricity": 0.00049801,
        "meta_inclination": 97.8615,
        "meta_ra_of_asc_node": 61.5818,
        "meta_arg_of_pericenter": 176.2974,
        "meta_mean_anomaly": 183.8278,
        "meta_ephemeris_type": 0,
        "meta_classification_type": "U",
        "meta_norad_cat_id": 40115,
        "meta_element_set_no": 999,
        "meta_rev_at_epoch": 61462,
        "meta_bstar": 0.00014704993,
        "meta_mean_motion_dot": 1.216e-05,
        "meta_mean_motion_ddot": 0,
        "tle_line1": "1 40115U 14048A   25349.33409413  .00001216  00000+0  14705-3 0  9997",
        "tle_line2": "2 40115  97.8615  61.5818 0004980 176.2974 183.8278 14.85518093614625"
      },
      "geometry": {
        "type": "Point",
        "coordinates": [
          55.93340912154545,
          38.253479465958506
        ]
      }
    },
    {
      "type": "Feature",
      "properties": {
        "norad_id": 40118,
        "name": "GAOFEN-2",
        "group": "resource",
        "lat": 19.880551497563047,
        "lon": -127.9492544451624,
        "alt_km": 624.1294662330401,
        "timestamp": "2025-12-15T22:44:28.580548+00:00",
        "meta_object_name": "GAOFEN-2",
        "meta_object_id": "2014-049A",
        "meta_epoch": "2025-12-15T09:02:49.843392",
        "meta_mean_motion": 14.80614305,
        "meta_eccentricity": 0.00086263,
        "meta_inclination": 98.0385,
        "meta_ra_of_asc_node": 48.5499,
        "meta_arg_of_pericenter": 105.4391,
        "meta_mean_anomaly": 254.7774,
        "meta_ephemeris_type": 0,
        "meta_classification_type": "U",
        "meta_norad_cat_id": 40118,
        "meta_element_set_no": 999,
        "meta_rev_at_epoch": 61203,
        "meta_bstar": 8.6072375e-05,
        "meta_mean_motion_dot": 6.07e-06,
        "meta_mean_motion_ddot": 0,
        "tle_line1": "1 40118U 14049A   25349.37696578  .00000607  00000+0  86072-4 0  9995",
        "tle_line2": "2 40118  98.0385  48.5499 0008626 105.4391 254.7774 14.80614305612033"
      },
      "geometry": {
        "type": "Point",
        "coordinates": [
          -127.9492544451624,
          19.880551497563047
        ]
      }
    },
    {
      "type": "Feature",
      "properties": {
        "norad_id": 40143,
        "name": "YAOGAN-21",
        "group": "resource",
        "lat": -77.49526097154018,
        "lon": 178.50275028794184,
        "alt_km": 506.355244342687,
        "timestamp": "2025-12-15T22:44:28.580559+00:00",
        "meta_object_name": "YAOGAN-21",
        "meta_object_id": "2014-053A",
        "meta_epoch": "2025-12-15T08:59:44.642400",
        "meta_mean_motion": 15.2370919,
        "meta_eccentricity": 0.00095385,
        "meta_inclination": 97.1762,
        "meta_ra_of_asc_node": 32.5731,
        "meta_arg_of_pericenter": 33.2581,
        "meta_mean_anomaly": 326.9254,
        "meta_ephemeris_type": 0,
        "meta_classification_type": "U",
        "meta_norad_cat_id": 40143,
        "meta_element_set_no": 999,
        "meta_rev_at_epoch": 62694,
        "meta_bstar": 0.00014743089,
        "meta_mean_motion_dot": 3.476e-05,
        "meta_mean_motion_ddot": 0,
        "tle_line1": "1 40143U 14053A   25349.37482225  .00003476  00000+0  14743-3 0  9992",
        "tle_line2": "2 40143  97.1762  32.5731 0009538  33.2581 326.9254 15.23709190626949"
      },
      "geometry": {
        "type": "Point",
        "coordinates": [
          178.50275028794184,
          -77.49526097154018
        ]
      }
    },
    {
      "type": "Feature",
      "properties": {
        "norad_id": 40275,
        "name": "YAOGAN-22",
        "group": "resource",
        "lat": -34.2194853997726,
        "lon": -54.005510906221936,
        "alt_km": 1203.7829198668778,
        "timestamp": "2025-12-15T22:44:28.580569+00:00",
        "meta_object_name": "YAOGAN-22",
        "meta_object_id": "2014-063A",
        "meta_epoch": "2025-12-15T08:52:31.988352",
        "meta_mean_motion": 13.15522722,
        "meta_eccentricity": 0.00059676,
        "meta_inclination": 100.7422,
        "meta_ra_of_asc_node": 132.8264,
        "meta_arg_of_pericenter": 241.765,
        "meta_mean_anomaly": 118.2859,
        "meta_ephemeris_type": 0,
        "meta_classification_type": "U",
        "meta_norad_cat_id": 40275,
        "meta_element_set_no": 999,
        "meta_rev_at_epoch": 53564,
        "meta_bstar": 7.7072386e-05,
        "meta_mean_motion_dot": -1.8e-07,
        "meta_mean_motion_ddot": 0,
        "tle_line1": "1 40275U 14063A   25349.36981468 -.00000018  00000+0  77072-4 0  9996",
        "tle_line2": "2 40275 100.7422 132.8264 0005967 241.7650 118.2859 13.15522722535641"
      },
      "geometry": {
        "type": "Point",
        "coordinates": [
          -54.005510906221936,
          -34.2194853997726
        ]
      }
    },
    {
      "type": "Feature",
      "properties": {
        "norad_id": 40298,
        "name": "ASNARO",
        "group": "resource",
        "lat": -77.40276664180976,
        "lon": -149.54924801175747,
        "alt_km": 517.7434038686333,
        "timestamp": "2025-12-15T22:44:28.580579+00:00",
        "meta_object_name": "ASNARO",
        "meta_object_id": "2014-070A",
        "meta_epoch": "2025-12-15T08:57:31.345344",
        "meta_mean_motion": 15.19558033,
        "meta_eccentricity": 0.00056473,
        "meta_inclination": 97.3649,
        "meta_ra_of_asc_node": 65.2557,
        "meta_arg_of_pericenter": 115.1961,
        "meta_mean_anomaly": 244.986,
        "meta_ephemeris_type": 0,
        "meta_classification_type": "U",
        "meta_norad_cat_id": 40298,
        "meta_element_set_no": 999,
        "meta_rev_at_epoch": 61609,
        "meta_bstar": 0.00041107059,
        "meta_mean_motion_dot": 8.681e-05,
        "meta_mean_motion_ddot": 0,
        "tle_line1": "1 40298U 14070A   25349.37327946  .00008681  00000+0  41107-3 0  9997",
        "tle_line2": "2 40298  97.3649  65.2557 0005647 115.1961 244.9860 15.19558033616094"
      },
      "geometry": {
        "type": "Point",
        "coordinates": [
          -149.54924801175747,
          -77.40276664180976
        ]
      }
    },
    {
      "type": "Feature",
      "properties": {
        "norad_id": 40310,
        "name": "YAOGAN-24",
        "group": "resource",
        "lat": 81.5667712847323,
        "lon": 15.458985376472082,
        "alt_km": 625.4971150059446,
        "timestamp": "2025-12-15T22:44:28.580590+00:00",
        "meta_object_name": "YAOGAN-24",
        "meta_object_id": "2014-072A",
        "meta_epoch": "2025-12-15T09:18:38.532672",
        "meta_mean_motion": 14.76183426,
        "meta_eccentricity": 0.00148513,
        "meta_inclination": 98.1215,
        "meta_ra_of_asc_node": 120.4946,
        "meta_arg_of_pericenter": 130.0471,
        "meta_mean_anomaly": 230.2043,
        "meta_ephemeris_type": 0,
        "meta_classification_type": "U",
        "meta_norad_cat_id": 40310,
        "meta_element_set_no": 999,
        "meta_rev_at_epoch": 59660,
        "meta_bstar": 0.0001221853,
        "meta_mean_motion_dot": 7.93e-06,
        "meta_mean_motion_ddot": 0,
        "tle_line1": "1 40310U 14072A   25349.38794598  .00000793  00000+0  12219-3 0  9994",
        "tle_line2": "2 40310  98.1215 120.4946 0014851 130.0471 230.2043 14.76183426596609"
      },
      "geometry": {
        "type": "Point",
        "coordinates": [
          15.458985376472082,
          81.5667712847323
        ]
      }
    },
    {
      "type": "Feature",
      "properties": {
        "norad_id": 40336,
        "name": "CBERS 4",
        "group": "resource",
        "lat": 79.72499241030656,
        "lon": -6.07608354898297,
        "alt_km": 764.8484902856753,
        "timestamp": "2025-12-15T22:44:28.580600+00:00",
        "meta_object_name": "CBERS 4",
        "meta_object_id": "2014-079A",
        "meta_epoch": "2025-12-15T08:58:08.163840",
        "meta_mean_motion": 14.35518789,
        "meta_eccentricity": 0.00016863,
        "meta_inclination": 98.3309,
        "meta_ra_of_asc_node": 47.3004,
        "meta_arg_of_pericenter": 109.5122,
        "meta_mean_anomaly": 250.6247,
        "meta_ephemeris_type": 0,
        "meta_classification_type": "U",
        "meta_norad_cat_id": 40336,
        "meta_element_set_no": 999,
        "meta_rev_at_epoch": 57758,
        "meta_bstar": 5.2693324e-05,
        "meta_mean_motion_dot": 1.1e-06,
        "meta_mean_motion_ddot": 0,
        "tle_line1": "1 40336U 14079A   25349.37370560  .00000110  00000+0  52693-4 0  9991",
        "tle_line2": "2 40336  98.3309  47.3004 0001686 109.5122 250.6247 14.35518789577588"
      },
      "geometry": {
        "type": "Point",
        "coordinates": [
          -6.07608354898297,
          79.72499241030656
        ]
      }
    }
  ]
}